OBJECT_NAME,OBJECT_ID,EPOCH,MEAN_MOTION,ECCENTRICITY,INCLINATION,RA_OF_ASC_NODE,ARG_OF_PERICENTER,MEAN_ANOMALY,EPHEMERIS_TYPE,CLASSIFICATION_TYPE,NORAD_CAT_ID,ELEMENT_SET_NO,REV_AT_EPOCH,BSTAR,MEAN_MOTION_DOT,MEAN_MOTION_DDOT
STARLINK-2045,2021-005E,2026-06-19T12:03:51.936480,15.31690886,.00011576,53.1566,247.0035,88.1835,271.9299,0,U,47353,999,29950,-.5738993E-5,-.543E-5,0
STARLINK-2046,2021-005F,2026-06-20T07:13:13.109952,15.31704530,.00011844,53.1605,266.6137,98.0451,262.0685,0,U,47354,999,29929,.51356016E-4,.1229E-4,0
STARLINK-2047,2021-005G,2026-06-20T06:21:47.872224,15.31706529,.00010724,53.1595,253.7906,81.2135,278.8988,0,U,47355,999,29946,.63665832E-4,.1611E-4,0
STARLINK-2049,2021-005H,2026-06-20T07:37:46.596288,15.31701537,.00008373,53.1571,279.5220,58.5195,301.5888,0,U,47356,999,29910,-.6780344E-5,-.575E-5,0
STARLINK-2050,2021-005J,2026-06-19T18:49:04.216512,15.31714427,.00009701,53.1613,307.9214,80.0101,280.1009,0,U,47357,999,29866,.83950511E-4,.2242E-4,0
STARLINK-2055,2021-005K,2026-06-19T17:11:12.167520,15.31276519,.00008809,53.1596,282.7537,356.6870,3.4125,0,U,47358,999,29900,.36390407E-3,.10797E-3,0
STARLINK-2071,2021-005N,2026-06-19T14:18:41.174496,15.31660423,.00008141,53.1601,283.3496,61.2684,298.8399,0,U,47361,999,29898,.76056795E-3,.23281E-3,0
STARLINK-2076,2021-005P,2026-06-19T15:46:18.498720,15.36581535,.00031799,53.1598,307.2359,303.6020,56.4680,0,U,47362,999,29866,.11110336E-2,.40085E-3,0
STARLINK-2081,2021-005T,2026-06-19T15:33:55.047456,15.31713640,.00009477,53.1589,308.2631,89.3740,270.7370,0,U,47366,999,29864,.38667952E-4,.836E-5,0
STARLINK-2082,2021-005U,2026-06-19T19:28:49.698912,15.31722074,.00011219,53.1621,307.5766,75.9856,284.1270,0,U,47367,999,29867,-.28579648E-4,-.1252E-4,0
STARLINK-2084,2021-005V,2026-06-19T18:55:43.054464,15.31710588,.00011176,53.1606,307.5257,74.7900,285.3225,0,U,47368,999,29867,.76352829E-4,.2006E-4,0
STARLINK-2088,2021-005Y,2026-06-19T15:55:15.187008,15.31707586,.00008872,53.1601,311.9545,75.9069,284.2031,0,U,47371,999,29859,.72990587E-4,.1901E-4,0
STARLINK-2092,2021-005AA,2026-06-19T14:26:46.001184,15.31725771,.00007759,53.1595,308.3791,79.6498,280.4591,0,U,47373,999,29864,.17129538E-3,.4958E-4,0
STARLINK-2093,2021-005AB,2026-06-20T06:21:45.193824,16.01846347,.00098817,53.0366,251.4888,345.1630,14.9109,0,U,47374,999,29947,.83801228E-3,.489546E-2,.11788936E-3
STARLINK-2094,2021-005AC,2026-06-19T16:41:00.595392,15.31717877,.0000978,53.1602,307.9765,58.9288,301.1809,0,U,47375,999,29865,.80655116E-4,.214E-4,0
STARLINK-2096,2021-005AD,2026-06-20T00:00:02.000160,15.31733431,.0001631,53.1595,306.5680,68.8454,147.6233,0,U,47376,999,578,-.79464013E-3,-.24968E-3,0
STARLINK-2097,2021-005AE,2026-06-19T16:02:26.069856,15.31718473,.00009912,53.1596,311.8635,84.3139,275.7976,0,U,47377,999,29859,.18726803E-3,.5454E-4,0
STARLINK-2098,2021-005AF,2026-06-19T13:29:55.660128,15.31703144,.00010585,53.1591,260.2430,89.3458,270.7665,0,U,47378,999,29932,.52975767E-4,.1279E-4,0
STARLINK-2099,2021-005AG,2026-06-19T12:09:18.464544,15.31690048,.00005107,53.1584,259.8751,60.0975,300.0077,0,U,47379,999,29932,-.3619349E-5,-.477E-5,0
STARLINK-2100,2021-005AH,2026-06-20T05:23:43.806912,15.81658726,.00097419,53.0520,254.8274,344.5308,15.5415,0,U,47380,999,29943,.75567622E-3,.157279E-2,0
STARLINK-2101,2021-005AJ,2026-06-19T16:59:37.699008,15.31741401,.00012455,53.1593,282.8136,59.5630,300.5494,0,U,47381,999,29901,.40547138E-3,.12254E-3,0
STARLINK-2102,2021-005AK,2026-06-19T13:34:14.450592,15.31721527,.00010762,53.1576,272.5990,84.4462,275.6662,0,U,47382,999,29914,.89907359E-4,.2428E-4,0
STARLINK-2103,2021-005AL,2026-06-19T13:38:55.598784,15.35283327,.00042381,53.1566,259.7714,343.5840,16.5025,0,U,47383,999,29933,.14380039E-2,.49935E-3,0
STARLINK-2104,2021-005AM,2026-06-20T08:00:03.000384,15.31699864,.00015356,53.1578,279.9066,86.3540,200.7424,0,U,47384,999,582,.45832215E-3,.13884E-3,0
STARLINK-2105,2021-005AN,2026-06-19T22:40:53.153760,15.31709778,.00013856,53.1621,281.3810,65.4201,294.6944,0,U,47385,999,29904,.27422041E-4,.486E-5,0
STARLINK-2106,2021-005AP,2026-06-19T14:43:45.681888,15.30205122,.0001026,53.1567,283.2652,83.8351,276.2766,0,U,47386,999,29899,.65144321E-4,.1571E-4,0
STARLINK-2109,2021-005AR,2026-06-19T16:48:56.248992,15.31694389,.0000316,53.1605,311.7092,21.4691,338.6324,0,U,47388,999,29859,-.1574406E-5,-.413E-5,0
STARLINK-2110,2021-005AS,2026-06-19T16:58:31.714464,15.31713026,.00014311,53.1590,282.1316,82.1580,277.9583,0,U,47389,999,29902,.27438707E-3,.8162E-4,0
STARLINK-2111,2021-005AT,2026-06-19T19:23:18.182976,15.31718051,.00011097,53.1594,311.2644,123.3328,236.7780,0,U,47390,999,29861,.25440426E-4,.425E-5,0
STARLINK-2112,2021-005AU,2026-06-19T14:42:35.614944,15.12169911,.00004817,53.0677,291.8803,307.2746,52.8202,0,U,47391,999,29885,.10988861E-2,.18929E-3,0
