STARLINK-2045           
1 47353U 21005E   26170.50268445 -.00000543  00000+0 -57390-5 0  9992
2 47353  53.1566 247.0035 0001157  88.1835 271.9299 15.31690886299509
STARLINK-2046           
1 47354U 21005F   26171.30084618  .00001229  00000+0  51356-4 0  9995
2 47354  53.1605 266.6137 0001184  98.0451 262.0685 15.31704530299296
STARLINK-2047           
1 47355U 21005G   26171.26513741  .00001611  00000+0  63666-4 0  9997
2 47355  53.1595 253.7906 0001072  81.2135 278.8988 15.31706529299465
STARLINK-2049           
1 47356U 21005H   26171.31790042 -.00000575  00000+0 -67803-5 0  9993
2 47356  53.1571 279.5220 0000837  58.5195 301.5888 15.31701537299104
STARLINK-2050           
1 47357U 21005J   26170.78407658  .00002242  00000+0  83951-4 0  9994
2 47357  53.1613 307.9214 0000970  80.0101 280.1009 15.31714427298665
STARLINK-2055           
1 47358U 21005K   26170.71611305  .00010797  00000+0  36390-3 0  9992
2 47358  53.1596 282.7537 0000880 356.6870   3.4125 15.31276519299008
STARLINK-2071           
1 47361U 21005N   26170.59630989  .00023281  00000+0  76057-3 0  9997
2 47361  53.1601 283.3496 0000814  61.2684 298.8399 15.31660423298989
STARLINK-2076           
1 47362U 21005P   26170.65715855  .00040085  00000+0  11110-2 0  9990
2 47362  53.1598 307.2359 0003179 303.6020  56.4680 15.36581535298660
STARLINK-2081           
1 47366U 21005T   26170.64855379  .00000836  00000+0  38668-4 0  9998
2 47366  53.1589 308.2631 0000947  89.3740 270.7370 15.31713640298649
STARLINK-2082           
1 47367U 21005U   26170.81168633 -.00001252  00000+0 -28580-4 0  9995
2 47367  53.1621 307.5766 0001121  75.9856 284.1270 15.31722074298674
STARLINK-2084           
1 47368U 21005V   26170.78869276  .00002006  00000+0  76353-4 0  9990
2 47368  53.1606 307.5257 0001117  74.7900 285.3225 15.31710588298675
STARLINK-2088           
1 47371U 21005Y   26170.66337022  .00001901  00000+0  72991-4 0  9997
2 47371  53.1601 311.9545 0000887  75.9069 284.2031 15.31707586298593
STARLINK-2092           
1 47373U 21005AA  26170.60192131  .00004958  00000+0  17130-3 0  9991
2 47373  53.1595 308.3791 0000775  79.6498 280.4591 15.31725771298644
STARLINK-2093           
1 47374U 21005AB  26171.26510641  .00489546  11789-3  83801-3 0  9993
2 47374  53.0366 251.4888 0009881 345.1630  14.9109 16.01846347299479
STARLINK-2094           
1 47375U 21005AC  26170.69514578  .00002140  00000+0  80655-4 0  9999
2 47375  53.1602 307.9765 0000978  58.9288 301.1809 15.31717877298655
STARLINK-2096           
1 47376U 21005AD  26171.00002315 -.00024968  00000+0 -79464-3 0  9996
2 47376  53.1595 306.5680 0001631  68.8454 147.6233 15.31733431  5788
STARLINK-2097           
1 47377U 21005AE  26170.66835729  .00005454  00000+0  18727-3 0  9993
2 47377  53.1596 311.8635 0000991  84.3139 275.7976 15.31718473298599
STARLINK-2098           
1 47378U 21005AF  26170.56244977  .00001279  00000+0  52976-4 0  9998
2 47378  53.1591 260.2430 0001058  89.3458 270.7665 15.31703144299320
STARLINK-2099           
1 47379U 21005AG  26170.50646371 -.00000477  00000+0 -36193-5 0  9992
2 47379  53.1584 259.8751 0000510  60.0975 300.0077 15.31690048299327
STARLINK-2100           
1 47380U 21005AH  26171.22481258  .00157279  00000+0  75568-3 0  9993
2 47380  53.0520 254.8274 0009741 344.5308  15.5415 15.81658726299436
STARLINK-2101           
1 47381U 21005AJ  26170.70807522  .00012254  00000+0  40547-3 0  9994
2 47381  53.1593 282.8136 0001245  59.5630 300.5494 15.31741401299014
STARLINK-2102           
1 47382U 21005AK  26170.56544503  .00002428  00000+0  89907-4 0  9992
2 47382  53.1576 272.5990 0001076  84.4462 275.6662 15.31721527299142
STARLINK-2103           
1 47383U 21005AL  26170.56869906  .00049935  00000+0  14380-2 0  9995
2 47383  53.1566 259.7714 0004238 343.5840  16.5025 15.35283327299336
STARLINK-2104           
1 47384U 21005AM  26171.33336806  .00013884  00000+0  45832-3 0  9991
2 47384  53.1578 279.9066 0001535  86.3540 200.7424 15.31699864  5822
STARLINK-2105           
1 47385U 21005AN  26170.94505965  .00000486  00000+0  27422-4 0  9992
2 47385  53.1621 281.3810 0001385  65.4201 294.6944 15.31709778299045
STARLINK-2106           
1 47386U 21005AP  26170.61372317  .00001571  00000+0  65144-4 0  9999
2 47386  53.1567 283.2652 0001026  83.8351 276.2766 15.30205122298996
STARLINK-2109           
1 47388U 21005AR  26170.70065103 -.00000413  00000+0 -15744-5 0  9991
2 47388  53.1605 311.7092 0000316  21.4691 338.6324 15.31694389298599
STARLINK-2110           
1 47389U 21005AS  26170.70731151  .00008162  00000+0  27439-3 0  9994
2 47389  53.1590 282.1316 0001431  82.1580 277.9583 15.31713026299024
STARLINK-2111           
1 47390U 21005AT  26170.80784934  .00000425  00000+0  25440-4 0  9999
2 47390  53.1594 311.2644 0001109 123.3328 236.7780 15.31718051298617
STARLINK-2112           
1 47391U 21005AU  26170.61291221  .00018929  00000+0  10989-2 0  9999
2 47391  53.0677 291.8803 0000481 307.2746  52.8202 15.12169911298854
